IONOSFERA-M 2           
1 61736U 24199B   26189.95871692  .00000023  00000+0  29764-4 0  9997
2 61736  98.7145  62.8087 0000324  93.5767 266.5448 14.22761600133928
PRSC-EO1                
1 62725U 25012A   26189.94937094  .00004820  00000+0  24212-3 0  9990
2 62725  97.4217 261.9833 0006377 168.6885 191.4493 15.17729949 81498
BIOMASS                 
1 63772U 25090A   26189.92271277  .00000720  00000+0  13544-3 0  9992
2 63772  98.0742  16.9197 0001504  91.2147 268.9230 14.67536826 63876
GOSAT-GW (IBUKI GW)     
1 64694U 25141A   26190.00821714 -.00000043  00000+0  77367-6 0  9996
2 64694  98.0566 126.9708 0001427  84.7440 275.3927 14.67553472 55042
IONOSFERA-M 3           
1 64876U 25155A   26189.99591485  .00000027  00000+0  31993-4 0  9992
2 64876  98.6036 151.3532 0002085 121.7035 238.4346 14.21490111 49501
IONOSFERA-M 4           
1 64877U 25155B   26189.96033071  .00000029  00000+0  32881-4 0  9991
2 64877  98.6035 151.2356 0001706 105.8736 254.2630 14.21492528 49498
MICROCARB               
1 64899U 25156A   26189.82488446  .00000365  00000+0  64738-4 0  9990
2 64899  98.0075 266.6164 0017113 191.0246 169.0589 14.72880505 51154
CO3D 3                  
1 64900U 25156B   26189.90916009  .00002829  00000+0  13376-3 0  9991
2 64900  97.4333 268.2898 0001845 100.3006 259.8437 15.20203455 52834
CO3D 4                  
1 64901U 25156C   26189.90930961  .00001144  00000+0  55960-4 0  9990
2 64901  97.4334 268.2897 0001124 163.8871 196.2400 15.20195174 52831
CO3D 2                  
1 64902U 25156D   26189.94177808  .00002651  00000+0  12551-3 0  9990
2 64902  97.4332 268.2209 0001346  89.9661 270.1728 15.20212660 52833
CO3D 1                  
1 64903U 25156E   26189.94193247  .00002900  00000+0  13706-3 0  9996
2 64903  97.4333 268.2211 0001271  97.2632 262.8748 15.20192100 52831
PRSC-S1                 
1 65055U 25164A   26190.00827198  .00002135  00000+0  15338-3 0  9995
2 65055  41.1289 164.8995 0005696 155.5492 204.5593 15.06604010 51723
SENTINEL-6B             
1 66514U 25264A   26189.94709326 -.00000070  00000+0 -39070-4 0  9998
2 66514  66.0415  89.9844 0007883 268.8169  91.1943 12.80930094 29952
CAS500-3                
1 66655U 25274F   26189.79608866  .00000933  00000+0  10657-3 0  9990
2 66655  97.7440 117.3557 0006665  55.1765 305.0078 14.88374289 33364
CSG-3                   
1 67304U 26001A   26189.93742811  .00000200  00000+0  31684-4 0  9997
2 67304  97.8893  13.2246 0001505  92.0989 268.0397 14.82149154 27689
PRSC-E03                
1 68835U 26092A   26189.79320299  .00001893  00000+0  13195-3 0  9998
2 68835  38.0024 322.2648 0004329 210.9436 149.1071 15.06789791 11210
CAS500-2                
1 69013U 26100AK  26189.66895771  .00004456  00000+0  20476-3 0  9993
2 69013  97.3876  87.1194 0008243 319.2851  40.7768 15.20852251 10078
