OBJECT_NAME,OBJECT_ID,EPOCH,MEAN_MOTION,ECCENTRICITY,INCLINATION,RA_OF_ASC_NODE,ARG_OF_PERICENTER,MEAN_ANOMALY,EPHEMERIS_TYPE,CLASSIFICATION_TYPE,NORAD_CAT_ID,ELEMENT_SET_NO,REV_AT_EPOCH,BSTAR,MEAN_MOTION_DOT,MEAN_MOTION_DDOT
IONOSFERA-M 2,2024-199B,2026-07-08T23:00:33.141888,14.22761600,.00003242,98.7145,62.8087,93.5767,266.5448,0,U,61736,999,13392,.29764053E-4,.23E-6,0
PRSC-EO1,2025-012A,2026-07-08T22:47:05.649216,15.17729949,.00063771,97.4217,261.9833,168.6885,191.4493,0,U,62725,999,8149,.24211627E-3,.482E-4,0
BIOMASS,2025-090A,2026-07-08T22:08:42.383328,14.67536826,.00015042,98.0742,16.9197,91.2147,268.9230,0,U,63772,999,6387,.13543533E-3,.72E-5,0
GOSAT-GW (IBUKI GW),2025-141A,2026-07-09T00:11:49.960896,14.67553472,.00014276,98.0566,126.9708,84.7440,275.3927,0,U,64694,999,5504,.773666E-6,-.43E-6,0
IONOSFERA-M 3,2025-155A,2026-07-08T23:54:07.043040,14.21490111,.00020854,98.6036,151.3532,121.7035,238.4346,0,U,64876,999,4950,.31992617E-4,.27E-6,0
IONOSFERA-M 4,2025-155B,2026-07-08T23:02:52.573344,14.21492528,.00017067,98.6035,151.2356,105.8736,254.2630,0,U,64877,999,4949,.32880956E-4,.29E-6,0
MICROCARB,2025-156A,2026-07-08T19:47:50.017344,14.72880505,.0017113,98.0075,266.6164,191.0246,169.0589,0,U,64899,999,5115,.64737853E-4,.365E-5,0
CO3D 3,2025-156B,2026-07-08T21:49:11.431776,15.20203455,.0001845,97.4333,268.2898,100.3006,259.8437,0,U,64900,999,5283,.13375737E-3,.2829E-4,0
CO3D 4,2025-156C,2026-07-08T21:49:24.350304,15.20195174,.00011245,97.4334,268.2897,163.8871,196.2400,0,U,64901,999,5283,.5595998E-4,.1144E-4,0
CO3D 2,2025-156D,2026-07-08T22:36:09.626112,15.20212660,.00013468,97.4332,268.2209,89.9661,270.1728,0,U,64902,999,5283,.12550689E-3,.2651E-4,0
CO3D 1,2025-156E,2026-07-08T22:36:22.965408,15.20192100,.00012711,97.4333,268.2211,97.2632,262.8748,0,U,64903,999,5283,.13705821E-3,.29E-4,0
PRSC-S1,2025-164A,2026-07-09T00:11:54.699072,15.06604010,.00056968,41.1289,164.8995,155.5492,204.5593,0,U,65055,999,5172,.15338073E-3,.2135E-4,0
SENTINEL-6B,2025-264A,2026-07-08T22:43:48.857664,12.80930094,.00078831,66.0415,89.9844,268.8169,91.1943,0,U,66514,999,2995,-.39070104E-4,-.7E-6,0
CAS500-3,2025-274F,2026-07-08T19:06:22.060224,14.88374289,.00066658,97.7440,117.3557,55.1765,305.0078,0,U,66655,999,3336,.10657486E-3,.933E-5,0
CSG-3,2026-001A,2026-07-08T22:29:53.788704,14.82149154,.00015059,97.8893,13.2246,92.0989,268.0397,0,U,67304,999,2768,.31683556E-4,.2E-5,0
PRSC-E03,2026-092A,2026-07-08T19:02:12.738336,15.06789791,.00043295,38.0024,322.2648,210.9436,149.1071,0,U,68835,999,1121,.13194699E-3,.1893E-4,0
CAS500-2,2026-100AK,2026-07-08T16:03:17.946144,15.20852251,.00082432,97.3876,87.1194,319.2851,40.7768,0,U,69013,999,1007,.20476097E-3,.4456E-4,0
